{
    "links": {
        "self": "http://www.neowsapp.com/rest/v1/neo/3674333?api_key=iIulBulltgU6a56xZRHN4H3l9WmuAYTsLGpBGhQ2"
    },
    "id": "3674333",
    "neo_reference_id": "3674333",
    "name": "(2014 MJ55)",
    "designation": "2014 MJ55",
    "nasa_jpl_url": "http://ssd.jpl.nasa.gov/sbdb.cgi?sstr=3674333",
    "absolute_magnitude_h": 23.6,
    "estimated_diameter": {
        "kilometers": {
            "estimated_diameter_min": 0.0506471459,
            "estimated_diameter_max": 0.1132504611
        },
        "meters": {
            "estimated_diameter_min": 50.6471458835,
            "estimated_diameter_max": 113.2504610618
        },
        "miles": {
            "estimated_diameter_min": 0.0314706677,
            "estimated_diameter_max": 0.0703705522
        },
        "feet": {
            "estimated_diameter_min": 166.1651821003,
            "estimated_diameter_max": 371.5566426699
        }
    },
    "is_potentially_hazardous_asteroid": false,
    "close_approach_data": [
        {
            "close_approach_date": "2014-07-23",
            "close_approach_date_full": "2014-Jul-23 12:23",
            "epoch_date_close_approach": 1406118180000,
            "relative_velocity": {
                "kilometers_per_second": "13.7037882212",
                "kilometers_per_hour": "49333.6375962592",
                "miles_per_hour": "30654.0038719645"
            },
            "miss_distance": {
                "astronomical": "0.0740574827",
                "lunar": "28.8083607703",
                "kilometers": "11078841.669481849",
                "miles": "6884072.9947095562"
            },
            "orbiting_body": "Earth"
        }
    ],
    "orbital_data": {
        "orbit_id": "5",
        "orbit_determination_date": "2017-04-06 08:39:50",
        "first_observation_date": "2014-06-30",
        "last_observation_date": "2014-07-21",
        "data_arc_in_days": 21,
        "observations_used": 19,
        "orbit_uncertainty": "8",
        "minimum_orbit_intersection": ".0613555",
        "jupiter_tisserand_invariant": "3.752",
        "epoch_osculation": "2456840.5",
        "eccentricity": ".5382049625094826",
        "semi_major_axis": "1.896912642633116",
        "inclination": "7.426612166733697",
        "ascending_node_longitude": "97.99795908751946",
        "orbital_period": "954.2659407318399",
        "perihelion_distance": ".8759848449209964",
        "perihelion_argument": "261.9074247229333",
        "aphelion_distance": "2.917840440345236",
        "perihelion_time": "2456905.236019368647",
        "mean_anomaly": "335.5781213831859",
        "mean_motion": ".3772533259689757",
        "equinox": "J2000",
        "orbit_class": {
            "orbit_class_type": "APO",
            "orbit_class_description": "Near-Earth asteroid orbits which cross the Earth’s orbit similar to that of 1862 Apollo",
            "orbit_class_range": "a (semi-major axis) > 1.0 AU; q (perihelion) < 1.017 AU"
        }
    },
    "is_sentry_object": false
}